OBJECT_NAME,OBJECT_ID,EPOCH,MEAN_MOTION,ECCENTRICITY,INCLINATION,RA_OF_ASC_NODE,ARG_OF_PERICENTER,MEAN_ANOMALY,EPHEMERIS_TYPE,CLASSIFICATION_TYPE,NORAD_CAT_ID,ELEMENT_SET_NO,REV_AT_EPOCH,BSTAR,MEAN_MOTION_DOT,MEAN_MOTION_DDOT
STARLINK-38092,2026-160M,2026-07-22T21:01:45.426144,15.78712453,.00044232,70.0019,3.8294,297.1575,62.9174,0,U,100012,999,260,-.19859611E-2,-.335947E-2,0
STARLINK-37719,2026-160N,2026-07-22T17:57:06.708384,15.80965697,.00099346,70.0030,4.1844,286.0722,73.9385,0,U,100013,999,258,-.63303559E-2,-.1093193E-1,0
STARLINK-38106,2026-160P,2026-07-22T17:57:07.295040,15.80506211,.00094693,70.0067,4.1839,277.8329,82.1797,0,U,100014,999,258,.16749696E-2,.331866E-2,0
STARLINK-37299,2026-160Q,2026-07-23T04:33:42.243264,15.81212531,.00117327,69.9947,2.9184,211.6068,148.4431,0,U,100015,999,265,.17484723E-2,.359477E-2,0
STARLINK-38052,2026-160R,2026-07-22T22:25:31.658880,15.84017754,.00210623,70.0053,3.6283,279.1871,80.6949,0,U,100016,999,261,-.28795201E-2,-.615983E-2,0
STARLINK-38114,2026-160S,2026-07-22T20:54:28.970496,15.83702974,.00107134,70.0012,3.8081,242.6107,117.4006,0,U,100017,999,260,.16829252E-2,.389529E-2,0
STARLINK-37239,2026-160T,2026-07-22T11:48:22.229280,15.81483806,.00050793,70.0008,4.8956,287.6122,72.4525,0,U,100018,999,254,-.45601297E-2,-.828282E-2,0
STARLINK-37580,2026-160U,2026-07-22T20:54:19.634112,15.80407273,.0005752,69.9996,3.8107,328.7086,31.3772,0,U,100019,999,260,.74005293E-3,.142463E-2,0
STARLINK-38032,2026-160V,2026-07-22T11:46:27.994656,15.82222711,.0006436,70.0014,4.8892,249.0512,111.0002,0,U,100020,999,254,-.1175732E-2,-.236554E-2,0
STARLINK-38110,2026-160W,2026-07-22T11:45:28.259424,15.82515639,.00067006,70.0020,4.8872,244.1080,115.9432,0,U,100021,999,254,.44952761E-3,.94798E-3,0
STARLINK-38103,2026-160X,2026-07-22T11:44:31.933536,15.82573965,.0006342,70.0015,4.8840,251.6169,108.4343,0,U,100022,999,254,-.11365481E-2,-.232551E-2,0
STARLINK-38102,2026-160Y,2026-07-23T04:25:04.754784,15.82921332,.00176708,69.9981,2.8897,224.0281,135.9515,0,U,100023,999,265,.14941984E-2,.333491E-2,0
STARLINK-38108,2026-160Z,2026-07-22T11:42:38.434176,15.83059650,.00068721,70.0014,4.8789,216.7234,143.3499,0,U,100024,999,254,.12653308E-2,.280019E-2,0
STARLINK-38109,2026-160AA,2026-07-22T11:41:41.644320,15.83271119,.00063591,70.0007,4.8791,238.0822,121.9763,0,U,100025,999,254,.44541031E-3,.97326E-3,0
STARLINK-38034,2026-160AB,2026-07-22T11:40:37.576128,15.82793634,.00056607,70.0012,4.8744,282.5381,77.5187,0,U,100026,999,254,-.44993165E-2,-.865654E-2,0
STARLINK-38094,2026-160AC,2026-07-22T11:39:40.789728,15.82970260,.00053361,70.0027,4.8718,279.9546,80.1054,0,U,100027,999,254,-.43305915E-2,-.842219E-2,0
STARLINK-37844,2026-161A,2026-07-23T07:27:42.880608,15.85068800,.00007769,53.1596,280.8848,36.4863,323.6215,0,U,100028,999,256,-.3955799E-2,-.863631E-2,0
STARLINK-37610,2026-161B,2026-07-22T16:19:17.847552,15.87826725,.00006771,53.1601,284.0617,35.8600,324.2471,0,U,100029,999,133,-.34606155E-2,-.865396E-2,0
STARLINK-37845,2026-161C,2026-07-22T22:21:30.512160,15.86513051,.00049557,53.1609,282.7842,35.3017,324.8336,0,U,100030,999,137,-.10624125E-2,-.267121E-2,0
STARLINK-37336,2026-161D,2026-07-23T05:53:03.679008,15.87148406,.00137756,53.1600,281.1857,310.5385,49.4440,0,U,100031,999,142,-.11468353E-1,-.2644755E-1,0
STARLINK-37481,2026-161E,2026-07-23T05:50:52.935936,15.86356329,.00043377,53.1606,281.1718,274.3897,85.6632,0,U,100032,999,142,-.11569619E-1,-.2547603E-1,0
STARLINK-37458,2026-161F,2026-07-23T05:50:10.507488,15.87535102,.00091087,53.1595,281.1714,313.0928,46.9335,0,U,100033,999,142,-.10227831E-1,-.2364263E-1,0
STARLINK-37917,2026-161G,2026-07-23T05:49:03.480096,15.86819560,.00022452,53.1601,281.1646,263.9574,96.1196,0,U,100034,999,142,-.12112448E-1,-.2695689E-1,0
STARLINK-37415,2026-161H,2026-07-23T05:48:17.955936,15.87917296,.0008993,53.1594,281.1624,314.0524,45.9760,0,U,100035,999,142,-.10259109E-1,-.2408439E-1,0
STARLINK-37560,2026-161J,2026-07-23T04:16:25.476096,15.89837565,.00130255,53.1600,281.4751,218.5863,141.4234,0,U,100036,999,141,.18089858E-2,.550534E-2,.1268173E-3
STARLINK-37847,2026-161K,2026-07-23T05:46:19.571520,15.88079289,.00099057,53.1596,281.1531,308.6101,51.4037,0,U,100037,999,142,-.10243395E-1,-.2424759E-1,0
STARLINK-37672,2026-161L,2026-07-23T05:45:16.527168,15.87296938,.00015922,53.1603,281.1450,189.9263,170.1732,0,U,100038,999,142,-.11208749E-1,-.2575485E-1,0
STARLINK-37693,2026-161M,2026-07-23T05:44:21.834240,15.87511062,.00024747,53.1598,281.1427,271.8004,88.2738,0,U,100039,999,142,-.11433756E-1,-.2644601E-1,0
STARLINK-37714,2026-161N,2026-07-23T05:43:37.331328,15.90296049,.00125412,53.1595,281.1392,249.1153,110.8532,0,U,100040,999,142,.56466998E-2,.1732395E-1,.15294452E-2
