{"epoch":1784817359,"count":18317,"objects":[{"id":"100012","name":"STARLINK-38092","type":"PAYLOAD","l1":"1 A0012U 26160M   26203.87622021 -.00335947  00000-0 -19860-2 0  9998","l2":"2 A0012  70.0019   3.8294 0004423 297.1575  62.9174 15.78712453  2607"},{"id":"100013","name":"STARLINK-37719","type":"PAYLOAD","l1":"1 A0013U 26160N   26203.74799431 -.01093193  00000-0 -63304-2 0  9992","l2":"2 A0013  70.0030   4.1844 0009935 286.0722  73.9385 15.80965697  2586"},{"id":"100014","name":"STARLINK-38106","type":"PAYLOAD","l1":"1 A0014U 26160P   26203.74800110  .00331866  00000-0  16750-2 0  9992","l2":"2 A0014  70.0067   4.1839 0009469 277.8329  82.1797 15.80506211  2586"},{"id":"100015","name":"STARLINK-37299","type":"PAYLOAD","l1":"1 A0015U 26160Q   26204.19007226  .00359477  00000-0  17485-2 0  9994","l2":"2 A0015  69.9947   2.9184 0011733 211.6068 148.4431 15.81212531  2652"},{"id":"100016","name":"STARLINK-38052","type":"PAYLOAD","l1":"1 A0016U 26160R   26203.93439420 -.00615983  00000-0 -28795-2 0  9996","l2":"2 A0016  70.0053   3.6283 0021062 279.1871  80.6949 15.84017754  2619"},{"id":"100017","name":"STARLINK-38114","type":"PAYLOAD","l1":"1 A0017U 26160S   26203.87116864  .00389529  00000-0  16829-2 0  9991","l2":"2 A0017  70.0012   3.8081 0010713 242.6107 117.4006 15.83702974  2607"},{"id":"100018","name":"STARLINK-37239","type":"PAYLOAD","l1":"1 A0018U 26160T   26203.49192395 -.00828282  00000-0 -45601-2 0  9999","l2":"2 A0018  70.0008   4.8956 0005079 287.6122  72.4525 15.81483806  2547"},{"id":"100019","name":"STARLINK-37580","type":"PAYLOAD","l1":"1 A0019U 26160U   26203.87106058  .00142463  00000-0  74005-3 0  9992","l2":"2 A0019  69.9996   3.8107 0005752 328.7086  31.3772 15.80407273  2600"},{"id":"100020","name":"STARLINK-38032","type":"PAYLOAD","l1":"1 A0020U 26160V   26203.49060179 -.00236554  00000-0 -11757-2 0  9996","l2":"2 A0020  70.0014   4.8892 0006436 249.0512 111.0002 15.82222711  2546"},{"id":"100021","name":"STARLINK-38110","type":"PAYLOAD","l1":"1 A0021U 26160W   26203.48991041  .00094798  00000-0  44953-3 0  9992","l2":"2 A0021  70.0020   4.8872 0006701 244.1080 115.9432 15.82515639  2547"},{"id":"100022","name":"STARLINK-38103","type":"PAYLOAD","l1":"1 A0022U 26160X   26203.48925849 -.00232551  00000-0 -11365-2 0  9999","l2":"2 A0022  70.0015   4.8840 0006342 251.6169 108.4343 15.82573965  2543"},{"id":"100023","name":"STARLINK-38102","type":"PAYLOAD","l1":"1 A0023U 26160Y   26204.18408281  .00333491  00000-0  14942-2 0  9991","l2":"2 A0023  69.9981   2.8897 0017671 224.0281 135.9515 15.82921332  2652"},{"id":"100024","name":"STARLINK-38108","type":"PAYLOAD","l1":"1 A0024U 26160Z   26203.48794484  .00280019  00000-0  12653-2 0  9991","l2":"2 A0024  70.0014   4.8789 0006872 216.7234 143.3499 15.83059650  2540"},{"id":"100025","name":"STARLINK-38109","type":"PAYLOAD","l1":"1 A0025U 26160AA  26203.48728755  .00097326  00000-0  44541-3 0  9999","l2":"2 A0025  70.0007   4.8791 0006359 238.0822 121.9763 15.83271119  2548"},{"id":"100026","name":"STARLINK-38034","type":"PAYLOAD","l1":"1 A0026U 26160AB  26203.48654602 -.00865654  00000-0 -44993-2 0  9998","l2":"2 A0026  70.0012   4.8744 0005661 282.5381  77.5187 15.82793634  2548"},{"id":"100027","name":"STARLINK-38094","type":"PAYLOAD","l1":"1 A0027U 26160AC  26203.48588877 -.00842219  00000-0 -43306-2 0  9998","l2":"2 A0027  70.0027   4.8718 0005336 279.9546  80.1054 15.82970260  2543"},{"id":"100028","name":"STARLINK-37844","type":"PAYLOAD","l1":"1 A0028U          26204.31091297 -.00863631  00000-0 -39558-2 0  9997","l2":"2 A0028  53.1596 280.8848 0000777  36.4863 323.6215 15.85068800  2566"},{"id":"100029","name":"STARLINK-37610","type":"PAYLOAD","l1":"1 A0029U 26161B   26203.68006768 -.00865396  00000-0 -34606-2 0  9991","l2":"2 A0029  53.1601 284.0617 0000677  35.8600 324.2471 15.87826725  1330"},{"id":"100030","name":"STARLINK-37845","type":"PAYLOAD","l1":"1 A0030U 26161C   26203.93160315 -.00267121  00000-0 -10624-2 0  9996","l2":"2 A0030  53.1609 282.7842 0004956  35.3017 324.8336 15.86513051  1370"},{"id":"100031","name":"STARLINK-37336","type":"PAYLOAD","l1":"1 A0031U 26161D   26204.24518147 -.02644755  00000-0 -11468-1 0  9992","l2":"2 A0031  53.1600 281.1857 0013776 310.5385  49.4440 15.87148406  1428"},{"id":"100032","name":"STARLINK-37481","type":"PAYLOAD","l1":"1 A0032U 26161E   26204.24366824 -.02547603  00000-0 -11570-1 0  9994","l2":"2 A0032  53.1606 281.1718 0004338 274.3897  85.6632 15.86356329  1429"},{"id":"100033","name":"STARLINK-37458","type":"PAYLOAD","l1":"1 A0033U 26161F   26204.24317717 -.02364263  00000-0 -10228-1 0  9990","l2":"2 A0033  53.1595 281.1714 0009109 313.0928  46.9335 15.87535102  1429"},{"id":"100034","name":"STARLINK-37917","type":"PAYLOAD","l1":"1 A0034U 26161G   26204.24240139 -.02695689  00000-0 -12112-1 0  9997","l2":"2 A0034  53.1601 281.1646 0002245 263.9574  96.1196 15.86819560  1420"},{"id":"100035","name":"STARLINK-37415","type":"PAYLOAD","l1":"1 A0035U 26161H   26204.24187449 -.02408439  00000-0 -10259-1 0  9997","l2":"2 A0035  53.1594 281.1624 0008993 314.0524  45.9760 15.87917296  1422"},{"id":"100036","name":"STARLINK-37560","type":"PAYLOAD","l1":"1 A0036U 26161J   26204.17807264  .00550534  12682-3  18090-2 0  9998","l2":"2 A0036  53.1600 281.4751 0013026 218.5863 141.4234 15.89837565  1411"},{"id":"100037","name":"STARLINK-37847","type":"PAYLOAD","l1":"1 A0037U 26161K   26204.24050430 -.02424759  00000-0 -10243-1 0  9994","l2":"2 A0037  53.1596 281.1531 0009906 308.6101  51.4037 15.88079289  1429"},{"id":"100038","name":"STARLINK-37672","type":"PAYLOAD","l1":"1 A0038U 26161L   26204.23977462 -.02575485  00000-0 -11209-1 0  9993","l2":"2 A0038  53.1603 281.1450 0001592 189.9263 170.1732 15.87296938  1423"},{"id":"100039","name":"STARLINK-37693","type":"PAYLOAD","l1":"1 A0039U 26161M   26204.23914160 -.02644601  00000-0 -11434-1 0  9997","l2":"2 A0039  53.1598 281.1427 0002475 271.8004  88.2738 15.87511062  1429"},{"id":"100040","name":"STARLINK-37714","type":"PAYLOAD","l1":"1 A0040U 26161N   26204.23862652  .01732395  15294-2  56467-2 0  9991","l2":"2 A0040  53.1595 281.1392 0012541 249.1153 110.8532 15.90296049  1420"}]}